HTV-X1                  
1 66174U 25241A   26082.80111431  .00014318  00000+0  46142-3 0  9991
2 66174  51.6366   5.0965 0007221 226.7847 133.2532 15.32399798 23107
SZ-21 MODULE            
1 66515U 25246C   26082.18487837  .00043706  00000+0  35991-3 0  9995
2 66515  41.4734 120.2206 0000654 218.7155 141.3640 15.69572241 20198
SHENZHOU-22             
1 66645U 25272A   26082.79038547  .00023990  00000+0  27624-3 0  9992
2 66645  41.4662 122.3160 0004876   5.1378 354.9510 15.61400224279107
SOYUZ-MS 28             
1 66664U 25275A   26082.84092848  .00015301  00000+0  29016-3 0  9990
2 66664  51.6344   2.4037 0006231 225.1303 134.9180 15.48504160557712
DUPLEX                  
1 66906U 98067XS  26082.96622369  .00028808  00000+0  39510-3 0  9994
2 66906  51.6299 357.9930 0003139 174.3509 185.7519 15.57109631 17352
ISS OBJECT XT           
1 66907U 98067XT  26082.12744157  .00252347  00000+0  16874-2 0  9997
2 66907  51.6254 356.8640 0005369 166.1185 193.9962 15.73983745 17296
ISS OBJECT XU           
1 66908U 98067XU  26082.94961702  .00207863  00000+0  13662-2 0  9990
2 66908  51.6246 352.5981 0005615 171.7900 188.3192 15.74515267 17429
SILVERSAT               
1 66909U 98067XV  26082.47529510  .00274859  00000+0  14886-2 0  9994
2 66909  51.6224 353.9233 0006210 174.2087 185.8987 15.78703515 17363
ISS OBJECT XW           
1 66910U 98067XW  26082.95577542  .00177198  00000+0  12412-2 0  9998
2 66910  51.6238 352.6360 0005876 171.3926 188.7174 15.73130824 17423
ISS OBJECT XX           
1 66911U 98067XX  26082.94142124  .00403417  00000+0  16589-2 0  9997
2 66911  51.6197 350.2546 0007849 180.3314 179.7686 15.84301586 17448
ISS OBJECT XY           
1 66912U 98067XY  26082.75680832  .00088303  00000+0  82601-3 0  9992
2 66912  51.6274 355.8350 0003940 170.7309 189.3760 15.66501049 17350
KNACKSAT-2              
1 67683U 98067XZ  26082.95403084  .00040019  00000+0  63283-3 0  9999
2 67683  51.6324   0.9113 0009789 237.1726 122.8322 15.53006815  7009
