CCSDS_OMM_VERS = 2.0
CREATION_DATE  = 
ORIGINATOR     = 

OBJECT_NAME    = HTV-X1
OBJECT_ID      = 2025-241A
CENTER_NAME    = EARTH
REF_FRAME      = TEME
TIME_SYSTEM    = UTC
MEAN_ELEMENT_THEORY = SGP/SGP4

EPOCH          = 2026-03-23T19:13:36.276384
MEAN_MOTION    = 15.32399798
ECCENTRICITY   = .00072212
INCLINATION    = 51.6366
RA_OF_ASC_NODE = 5.0965
ARG_OF_PERICENTER = 226.7847
MEAN_ANOMALY   = 133.2532

EPHEMERIS_TYPE = 0
CLASSIFICATION_TYPE = U
NORAD_CAT_ID   = 66174
ELEMENT_SET_NO = 999
REV_AT_EPOCH   = 2310
BSTAR          = .46141695E-3
MEAN_MOTION_DOT = .14318E-3
MEAN_MOTION_DDOT = 0

CCSDS_OMM_VERS = 2.0
CREATION_DATE  = 
ORIGINATOR     = 

OBJECT_NAME    = SZ-21 MODULE
OBJECT_ID      = 2025-246C
CENTER_NAME    = EARTH
REF_FRAME      = TEME
TIME_SYSTEM    = UTC
MEAN_ELEMENT_THEORY = SGP/SGP4

EPOCH          = 2026-03-23T04:26:13.491168
MEAN_MOTION    = 15.69572241
ECCENTRICITY   = .00006541
INCLINATION    = 41.4734
RA_OF_ASC_NODE = 120.2206
ARG_OF_PERICENTER = 218.7155
MEAN_ANOMALY   = 141.3640

EPHEMERIS_TYPE = 0
CLASSIFICATION_TYPE = U
NORAD_CAT_ID   = 66515
ELEMENT_SET_NO = 999
REV_AT_EPOCH   = 2019
BSTAR          = .35990835E-3
MEAN_MOTION_DOT = .43706E-3
MEAN_MOTION_DDOT = 0

CCSDS_OMM_VERS = 2.0
CREATION_DATE  = 
ORIGINATOR     = 

OBJECT_NAME    = SHENZHOU-22
OBJECT_ID      = 2025-272A
CENTER_NAME    = EARTH
REF_FRAME      = TEME
TIME_SYSTEM    = UTC
MEAN_ELEMENT_THEORY = SGP/SGP4

EPOCH          = 2026-03-23T18:58:09.304608
MEAN_MOTION    = 15.61400224
ECCENTRICITY   = .00048761
INCLINATION    = 41.4662
RA_OF_ASC_NODE = 122.3160
ARG_OF_PERICENTER = 5.1378
MEAN_ANOMALY   = 354.9510

EPHEMERIS_TYPE = 0
CLASSIFICATION_TYPE = U
NORAD_CAT_ID   = 66645
ELEMENT_SET_NO = 999
REV_AT_EPOCH   = 27910
BSTAR          = .27623776E-3
MEAN_MOTION_DOT = .2399E-3
MEAN_MOTION_DDOT = 0

CCSDS_OMM_VERS = 2.0
CREATION_DATE  = 
ORIGINATOR     = 

OBJECT_NAME    = SOYUZ-MS 28
OBJECT_ID      = 2025-275A
CENTER_NAME    = EARTH
REF_FRAME      = TEME
TIME_SYSTEM    = UTC
MEAN_ELEMENT_THEORY = SGP/SGP4

EPOCH          = 2026-03-23T20:10:56.220672
MEAN_MOTION    = 15.48504160
ECCENTRICITY   = .00062315
INCLINATION    = 51.6344
RA_OF_ASC_NODE = 2.4037
ARG_OF_PERICENTER = 225.1303
MEAN_ANOMALY   = 134.9180

EPHEMERIS_TYPE = 0
CLASSIFICATION_TYPE = U
NORAD_CAT_ID   = 66664
ELEMENT_SET_NO = 999
REV_AT_EPOCH   = 55771
BSTAR          = .2901609E-3
MEAN_MOTION_DOT = .15301E-3
MEAN_MOTION_DDOT = 0

CCSDS_OMM_VERS = 2.0
CREATION_DATE  = 
ORIGINATOR     = 

OBJECT_NAME    = DUPLEX
OBJECT_ID      = 1998-067XS
CENTER_NAME    = EARTH
REF_FRAME      = TEME
TIME_SYSTEM    = UTC
MEAN_ELEMENT_THEORY = SGP/SGP4

EPOCH          = 2026-03-23T23:11:21.726816
MEAN_MOTION    = 15.57109631
ECCENTRICITY   = .00031395
INCLINATION    = 51.6299
RA_OF_ASC_NODE = 357.9930
ARG_OF_PERICENTER = 174.3509
MEAN_ANOMALY   = 185.7519

EPHEMERIS_TYPE = 0
CLASSIFICATION_TYPE = U
NORAD_CAT_ID   = 66906
ELEMENT_SET_NO = 999
REV_AT_EPOCH   = 1735
BSTAR          = .3950955E-3
MEAN_MOTION_DOT = .28808E-3
MEAN_MOTION_DDOT = 0

CCSDS_OMM_VERS = 2.0
CREATION_DATE  = 
ORIGINATOR     = 

OBJECT_NAME    = ISS OBJECT XT
OBJECT_ID      = 1998-067XT
CENTER_NAME    = EARTH
REF_FRAME      = TEME
TIME_SYSTEM    = UTC
MEAN_ELEMENT_THEORY = SGP/SGP4

EPOCH          = 2026-03-23T03:03:30.951648
MEAN_MOTION    = 15.73983745
ECCENTRICITY   = .0005369
INCLINATION    = 51.6254
RA_OF_ASC_NODE = 356.8640
ARG_OF_PERICENTER = 166.1185
MEAN_ANOMALY   = 193.9962

EPHEMERIS_TYPE = 0
CLASSIFICATION_TYPE = U
NORAD_CAT_ID   = 66907
ELEMENT_SET_NO = 999
REV_AT_EPOCH   = 1729
BSTAR          = .1687406E-2
MEAN_MOTION_DOT = .252347E-2
MEAN_MOTION_DDOT = 0

CCSDS_OMM_VERS = 2.0
CREATION_DATE  = 
ORIGINATOR     = 

OBJECT_NAME    = ISS OBJECT XU
OBJECT_ID      = 1998-067XU
CENTER_NAME    = EARTH
REF_FRAME      = TEME
TIME_SYSTEM    = UTC
MEAN_ELEMENT_THEORY = SGP/SGP4

EPOCH          = 2026-03-23T22:47:26.910528
MEAN_MOTION    = 15.74515267
ECCENTRICITY   = .00056155
INCLINATION    = 51.6246
RA_OF_ASC_NODE = 352.5981
ARG_OF_PERICENTER = 171.7900
MEAN_ANOMALY   = 188.3192

EPHEMERIS_TYPE = 0
CLASSIFICATION_TYPE = U
NORAD_CAT_ID   = 66908
ELEMENT_SET_NO = 999
REV_AT_EPOCH   = 1742
BSTAR          = .1366247E-2
MEAN_MOTION_DOT = .207863E-2
MEAN_MOTION_DDOT = 0

CCSDS_OMM_VERS = 2.0
CREATION_DATE  = 
ORIGINATOR     = 

OBJECT_NAME    = SILVERSAT
OBJECT_ID      = 1998-067XV
CENTER_NAME    = EARTH
REF_FRAME      = TEME
TIME_SYSTEM    = UTC
MEAN_ELEMENT_THEORY = SGP/SGP4

EPOCH          = 2026-03-23T11:24:25.496640
MEAN_MOTION    = 15.78703515
ECCENTRICITY   = .000621
INCLINATION    = 51.6224
RA_OF_ASC_NODE = 353.9233
ARG_OF_PERICENTER = 174.2087
MEAN_ANOMALY   = 185.8987

EPHEMERIS_TYPE = 0
CLASSIFICATION_TYPE = U
NORAD_CAT_ID   = 66909
ELEMENT_SET_NO = 999
REV_AT_EPOCH   = 1736
BSTAR          = .14885915E-2
MEAN_MOTION_DOT = .274859E-2
MEAN_MOTION_DDOT = 0

CCSDS_OMM_VERS = 2.0
CREATION_DATE  = 
ORIGINATOR     = 

OBJECT_NAME    = ISS OBJECT XW
OBJECT_ID      = 1998-067XW
CENTER_NAME    = EARTH
REF_FRAME      = TEME
TIME_SYSTEM    = UTC
MEAN_ELEMENT_THEORY = SGP/SGP4

EPOCH          = 2026-03-23T22:56:18.996288
MEAN_MOTION    = 15.73130824
ECCENTRICITY   = .00058761
INCLINATION    = 51.6238
RA_OF_ASC_NODE = 352.6360
ARG_OF_PERICENTER = 171.3926
MEAN_ANOMALY   = 188.7174

EPHEMERIS_TYPE = 0
CLASSIFICATION_TYPE = U
NORAD_CAT_ID   = 66910
ELEMENT_SET_NO = 999
REV_AT_EPOCH   = 1742
BSTAR          = .12411548E-2
MEAN_MOTION_DOT = .177198E-2
MEAN_MOTION_DDOT = 0

CCSDS_OMM_VERS = 2.0
CREATION_DATE  = 
ORIGINATOR     = 

OBJECT_NAME    = ISS OBJECT XX
OBJECT_ID      = 1998-067XX
CENTER_NAME    = EARTH
REF_FRAME      = TEME
TIME_SYSTEM    = UTC
MEAN_ELEMENT_THEORY = SGP/SGP4

EPOCH          = 2026-03-23T22:35:38.795136
MEAN_MOTION    = 15.84301586
ECCENTRICITY   = .00078492
INCLINATION    = 51.6197
RA_OF_ASC_NODE = 350.2546
ARG_OF_PERICENTER = 180.3314
MEAN_ANOMALY   = 179.7686

EPHEMERIS_TYPE = 0
CLASSIFICATION_TYPE = U
NORAD_CAT_ID   = 66911
ELEMENT_SET_NO = 999
REV_AT_EPOCH   = 1744
BSTAR          = .16589246E-2
MEAN_MOTION_DOT = .403417E-2
MEAN_MOTION_DDOT = 0

CCSDS_OMM_VERS = 2.0
CREATION_DATE  = 
ORIGINATOR     = 

OBJECT_NAME    = ISS OBJECT XY
OBJECT_ID      = 1998-067XY
CENTER_NAME    = EARTH
REF_FRAME      = TEME
TIME_SYSTEM    = UTC
MEAN_ELEMENT_THEORY = SGP/SGP4

EPOCH          = 2026-03-23T18:09:48.238848
MEAN_MOTION    = 15.66501049
ECCENTRICITY   = .00039402
INCLINATION    = 51.6274
RA_OF_ASC_NODE = 355.8350
ARG_OF_PERICENTER = 170.7309
MEAN_ANOMALY   = 189.3760

EPHEMERIS_TYPE = 0
CLASSIFICATION_TYPE = U
NORAD_CAT_ID   = 66912
ELEMENT_SET_NO = 999
REV_AT_EPOCH   = 1735
BSTAR          = .82601246E-3
MEAN_MOTION_DOT = .88303E-3
MEAN_MOTION_DDOT = 0

CCSDS_OMM_VERS = 2.0
CREATION_DATE  = 
ORIGINATOR     = 

OBJECT_NAME    = KNACKSAT-2
OBJECT_ID      = 1998-067XZ
CENTER_NAME    = EARTH
REF_FRAME      = TEME
TIME_SYSTEM    = UTC
MEAN_ELEMENT_THEORY = SGP/SGP4

EPOCH          = 2026-03-23T22:53:48.264576
MEAN_MOTION    = 15.53006815
ECCENTRICITY   = .00097898
INCLINATION    = 51.6324
RA_OF_ASC_NODE = 0.9113
ARG_OF_PERICENTER = 237.1726
MEAN_ANOMALY   = 122.8322

EPHEMERIS_TYPE = 0
CLASSIFICATION_TYPE = U
NORAD_CAT_ID   = 67683
ELEMENT_SET_NO = 999
REV_AT_EPOCH   = 700
BSTAR          = .63283347E-3
MEAN_MOTION_DOT = .40019E-3
MEAN_MOTION_DDOT = 0

